MOLNIYA 2-9             
1 07276U 74026A   21273.91156710  .00000026  00000-0  00000-0 0  9994
2 07276  64.2441 264.8193 6614525 284.2659  14.9547  2.45096590242854
MOLNIYA 2-10            
1 07376U 74056A   21274.87398172  .00000368  00000-0  00000+0 0  9992
2 07376  63.7859 121.1788 6676622 288.8644  13.2974  2.01064780345181
MOLNIYA 1-S             
1 07392U 74060A   21274.59211340 -.00000314  00000-0  00000-0 0  9998
2 07392   5.7655 286.8378 0011037 203.4798 192.4896  1.00320185116937
MOLNIYA 1-29            
1 07780U 75036A   21273.96889260 -.00000188  00000-0 -48629-1 0  9995
2 07780  63.3190 245.9745 7097378 289.6057  10.5328  2.00599836340413
MOLNIYA 2-14            
1 08195U 75081A   21274.37309329 -.00000753  00000-0  00000-0 0  9992
2 08195  63.3590 217.1008 6976376 293.9693  10.2355  2.02107135337656
MOLNIYA 1-32            
1 08601U 76006A   21274.04796922 -.00001262  00000-0  10619-2 0  9990
2 08601  63.2758 335.6739 7377007 282.7695  10.6639  2.00064734 47477
MOLNIYA 1-36            
1 09880U 77021A   21275.03910961 -.00001549  00000-0 -10261-2 0  9991
2 09880  63.1491 305.3788 7350622 288.7608   9.4426  2.00487458224280
MOLNIYA 3-8             
1 10455U 77105A   21274.31922680 -.00001356  00000-0  15051-3 0  9993
2 10455  62.8889  38.5171 7390838 280.6359  11.0975  2.00576308321947
MOLNIYA 1-40            
1 10925U 78055A   21274.49055443 -.00000567  00000-0  00000-0 0  9991
2 10925  62.8867  84.8389 7190985 279.6999  12.5454  2.00682498317489
MOLNIYA 3-10            
1 11057U 78095A   21274.46582909  .00000362  00000-0  69914-3 0  9995
2 11057  62.8620 135.7722 5826242 307.1073  12.7161  4.09829684373110
MOLNIYA 3-13            
1 11896U 80063A   21272.74696112 -.00000079  00000-0  00000+0 0  9998
2 11896  62.6247 169.9641 7040482 276.1050  14.6372  2.00623215301914
MOLNIYA 1-49            
1 12156U 81009A   21270.20551226  .00000141  00000-0  15910-2 0  9992
2 12156  61.7294 204.5598 7184921 258.6563  19.9527  2.05699772216072
MOLNIYA 1-52            
1 13012U 81123A   21274.25128863  .00001418  00000-0  39219-2 0  9993
2 13012  62.4378 317.9109 7304073 251.4502  22.2284  2.00655918291370
MOLNIYA 1-53            
1 13070U 82015A   21273.98164186  .00000126  00000-0 -17119-1 0  9995
2 13070  62.4532 248.2912 7217412 281.3659  11.8228  2.00346686290054
MOLNIYA 3-20            
1 13875U 83015A   21274.41211460  .00000899  00000-0  27631-2 0  9993
2 13875  63.2375  33.3118 7363178 256.4156  19.2724  2.00835219218517
MOLNIYA 1-56            
1 13890U 83019A   21274.56856843  .00001598  00000-0  54365-4 0  9993
2 13890  63.1023  59.0146 7376802 262.1060  16.7744  1.99896410281426
MOLNIYA 1-62            
1 15214U 84089A   21270.59319398  .00001523  00000-0  29554-3 0  9990
2 15214  62.7671  61.4583 7511764 268.5830  13.4340  1.97977097239043
MOLNIYA 1-63            
1 15429U 84124A   21274.17754441 -.00000793  00000-0  00000-0 0  9999
2 15429  63.6655 191.9451 6545674 262.0775 342.5312  2.00429932269558
MOLNIYA 3-24            
1 15738U 85040A   21273.80087406  .00000015  00000-0  00000-0 0  9995
2 15738  63.7853 129.1833 6670300 248.2060  31.8001  2.55627349297238
MOLNIYA 3-27            
1 16393U 85117A   21270.04214404 -.00000024  00000-0  00000+0 0  9991
2 16393  64.5543 114.2076 6816140 250.9448  28.1670  2.12397794268600
MOLNIYA 1-69            
1 17078U 86089A   21273.03582453  .00001250  00000-0  00000-0 0  9997
2 17078  64.0339 211.0004 6598693 261.3407  24.4293  2.00820965255599
MOLNIYA 3-31            
1 17328U 87008A   21273.72460638  .00000033  00000-0  00000-0 0  9991
2 17328  63.7854 157.8363 6848609 255.8353  24.8528  2.00665341250655
MOLNIYA 1-71            
1 18946U 88017A   21274.70691539  .00000006  00000-0  00000+0 0  9993
2 18946  63.4602 154.6382 6967897 257.6390  22.6398  2.00565198245900
MOLNIYA 1-75            
1 19807U 89014A   21274.66134154  .00000185  00000-0  00000-0 0  9997
2 19807  64.1553 314.3169 6978894 268.5734  17.6680  2.00200299238818
MOLNIYA 1-80            
1 21118U 91012A   21274.41937965  .00000546  00000-0  00000-0 0  9991
2 21118  65.0485   1.9065 6859259 280.9978  14.4960  2.05241474225665
MOLNIYA 3-40            
1 21196U 91022A   21275.21679525 -.00001152  00000-0  00000+0 0  9996
2 21196  65.0676 355.2237 6894245 277.6887  15.2712  2.03022311224416
MOLNIYA 1-81            
1 21426U 91043A   21274.32860154 -.00000052  00000-0  00000-0 0  9995
2 21426  64.2122  17.2165 7112236 268.7394  16.6050  2.00622580221960
MOLNIYA 3-41            
1 21706U 91065A   21274.05120252  .00001117  00000-0  00000-0 0  9990
2 21706  64.1096 193.2574 6725467 258.9722  24.4217  2.04342391221561
MOLNIYA 3-42            
1 22178U 92067A   21272.94898270  .00000105  00000-0  00000-0 0  9991
2 22178  64.6933 244.0288 6523112 271.2304  20.4122  2.20435336 74314
MOLNIYA 1-86            
1 22671U 93035A   21274.74868979 -.00000093  00000-0 -25580-4 0  9990
2 22671  63.1769  26.3794 4824103   3.5309 358.9079  5.62623909337742
MOLNIYA 1-87            
1 22949U 93079A   21274.27251996  .00001285  00000-0  00000-0 0  9997
2 22949  63.6200 121.2626 6802766 286.0981  13.2920  2.02860699 69671
MOLNIYA 1-88            
1 23420U 94081A   21274.89642556  .00000014  00000-0  00000+0 0  9998
2 23420  64.2694 253.6841 5898207 287.5390  18.7077  3.34498318238293
MOLNIYA 3-47            
1 23642U 95042A   21272.81811945  .00000661  00000-0  00000-0 0  9991
2 23642  63.6134 104.1196 6854326 286.0842  12.9597  2.01924021191755
MOLNIYA 1-90            
1 24960U 97054A   21274.84789243 -.00000027  00000-0 -95870-3 0  9990
2 24960  63.6206 222.2709 6219877 300.2735  12.6012  3.18688266199841
MOLNIYA 1-91            
1 25485U 98054A   21273.27385209  .00000123  00000-0  22925-2 0  9999
2 25485  62.9688 191.0888 6855356 291.7253 338.2530  2.36444501172224
MOLNIYA 3-50            
1 25847U 99036A   21275.31722946 -.00000200  00000-0 -16516-3 0  9990
2 25847  62.8970  15.6521 7442452 280.2501  10.8956  2.00669162162938
